[{"OBJECT_NAME":"PTD-R (TYVAK-0127)","OBJECT_ID":"2024-149BH","EPOCH":"2026-03-09T19:31:31.459584","MEAN_MOTION":15.69700541,"ECCENTRICITY":0.00042667,"INCLINATION":97.3759,"RA_OF_ASC_NODE":162.0693,"ARG_OF_PERICENTER":248.5856,"MEAN_ANOMALY":111.4951,"EPHEMERIS_TYPE":0,"CLASSIFICATION_TYPE":"U","NORAD_CAT_ID":60523,"ELEMENT_SET_NO":999,"REV_AT_EPOCH":8769,"BSTAR":0.0012020526,"MEAN_MOTION_DOT":0.00144621,"MEAN_MOTION_DDOT":0},{"OBJECT_NAME":"STARLINK-11307 [DTC]","OBJECT_ID":"2024-171L","EPOCH":"2026-03-09T13:28:00.698880","MEAN_MOTION":15.69712277,"ECCENTRICITY":0.0001226,"INCLINATION":53.1605,"RA_OF_ASC_NODE":177.2511,"ARG_OF_PERICENTER":128.1588,"MEAN_ANOMALY":231.954,"EPHEMERIS_TYPE":0,"CLASSIFICATION_TYPE":"U","NORAD_CAT_ID":61210,"ELEMENT_SET_NO":999,"REV_AT_EPOCH":8437,"BSTAR":-2.4039e-5,"MEAN_MOTION_DOT":-3.5e-5,"MEAN_MOTION_DDOT":0}]
